ONEWEB-0551             
1 56053U 23043H   24067.54441258 -.00000132  00000+0 -38563-3 0  9998
2 56053  87.8957  64.7425 0001805  80.3526 279.7808 13.15548913 47058
ONEWEB-0552             
1 56054U 23043J   24067.46968616  .00000016  00000+0  66909-5 0  9998
2 56054  87.9231  49.5379 0002134  76.4340 283.7032 13.21827321 48358
ONEWEB-0553             
1 56055U 23043K   24067.47120773 -.00000110  00000+0 -32084-3 0  9996
2 56055  87.9094  34.3020 0001773  97.0622 263.0711 13.16594246 49538
ONEWEB-0554             
1 56056U 23043L   24067.45854472 -.00000207  00000+0 -57570-3 0  9999
2 56056  87.9097  34.3230 0002601  78.6502 281.4921 13.16594942 49516
ONEWEB-0555             
1 56057U 23043M   24067.42054528  .00000190  00000+0  46282-3 0  9998
2 56057  87.9092  34.3049 0002197 102.5068 257.6309 13.16593327 49515
ONEWEB-0557             
1 56058U 23043N   24067.43478772 -.00000054  00000+0 -17438-3 0  9993
2 56058  87.9092  34.3281 0002672 103.0763 257.0666 13.16594262 49519
ONEWEB-0558             
1 56059U 23043P   24067.46339784  .00000133  00000+0  29103-3 0  9994
2 56059  87.9235  49.5191 0001672  69.3061 290.8252 13.21826159 48368
ONEWEB-0559             
1 56060U 23043Q   24067.45233345  .00002961  00000+0  71340-2 0  9991
2 56060  87.9244  49.5197 0002572  69.9873 290.1538 13.21848888 48377
ONEWEB-0566             
1 56061U 23043R   24067.44602611  .00000141  00000+0  30893-3 0  9994
2 56061  87.9231  49.5231 0001700  61.7058 298.4247 13.21828099 48358
ONEWEB-0568             
1 56062U 23043S   24067.60419847 -.00000190  00000+0 -53015-3 0  9997
2 56062  87.9094  34.2585 0001904  94.9705 265.1643 13.16594488 49552
ONEWEB-0574             
1 56063U 23043T   24067.43973744  .00000170  00000+0  37998-3 0  9998
2 56063  87.9230  49.5206 0001782  85.5800 274.5537 13.21826702 48390
ONEWEB-0575             
1 56064U 23043U   24067.44586860 -.00000149  00000+0 -42460-3 0  9997
2 56064  87.9095  34.2977 0002471  89.6550 270.4864 13.16593869 49522
ONEWEB-0576             
1 56065U 23043V   24067.42687902  .00000057  00000+0  11574-3 0  9993
2 56065  87.9090  34.3012 0002069  96.6126 263.5241 13.16593463 49510
ONEWEB-0577             
1 56066U 23043W   24067.43321207 -.00000055  00000+0 -17776-3 0  9998
2 56066  87.9090  34.2987 0002777  90.2712 269.8737 13.16594316 49548
ONEWEB-0578             
1 56067U 23043X   24067.50282355  .00000070  00000+0  13848-3 0  9998
2 56067  87.9233  49.5029 0001909  90.3913 269.7439 13.21826077 48369
ONEWEB-0579             
1 56068U 23043Y   24067.49333941  .00000027  00000+0  34890-4 0  9998
2 56068  87.9230  49.5055 0002099  73.4499 286.6865 13.21828088 48374
ONEWEB-0581             
1 56069U 23043Z   24067.43954241 -.00000063  00000+0 -19846-3 0  9990
2 56069  87.9093  34.3271 0002521  80.6812 279.4604 13.16594634 49512
ONEWEB-0609             
1 56070U 23043AA  24067.49687847  .00000116  00000+0  27348-3 0  9996
2 56070  87.8955  64.7370 0001826  86.3075 273.8264 13.15548208 47083
ONEWEB-0613             
1 56071U 23043AB  24067.49212637  .00000075  00000+0  16585-3 0  9993
2 56071  87.8959  64.7298 0001933  76.5348 283.5998 13.15548084 47084
ONEWEB-0630             
1 56072U 23043AC  24067.48735413 -.00000225  00000+0 -63100-3 0  9999
2 56072  87.8955  64.7248 0001606  71.8533 288.2772 13.15548314 47074
ONEWEB-0632             
1 56073U 23043AD  24067.48261745 -.00000131  00000+0 -38143-3 0  9997
2 56073  87.8954  64.7448 0002294  82.6796 277.4594 13.15548545 47079
ONEWEB-0633             
1 56074U 23043AE  24067.55231708 -.00000044  00000+0 -15086-3 0  9996
2 56074  87.8951  64.7163 0001548  70.7119 289.4178 13.15546405 47062
ONEWEB-0634             
1 56075U 23043AF  24067.53806838 -.00000128  00000+0 -37495-3 0  9998
2 56075  87.8960  64.7234 0001537  94.6542 265.4764 13.15548315 47051
ONEWEB-0635             
1 56076U 23043AG  24067.53332668  .00000093  00000+0  21164-3 0  9999
2 56076  87.8956  64.7819 0002368  84.5760 275.5641 13.15549060 47086
ONEWEB-0636             
1 56077U 23043AH  24067.52539208 -.00000028  00000+0 -10741-3 0  9997
2 56077  87.8958  64.7526 0002252  88.1617 271.9771 13.15548592 47068
ONEWEB-0637             
1 56078U 23043AJ  24067.51906407  .00000218  00000+0  54604-3 0  9991
2 56078  87.8958  64.7289 0002393  88.3967 271.7438 13.15548219 47087
ONEWEB-0647             
1 56079U 23043AK  24067.51430677  .00000069  00000+0  14966-3 0  9994
2 56079  87.8953  64.7510 0002214  82.7652 277.3730 13.15548520 47072
ONEWEB-0651             
1 56080U 23043AL  24067.50953932 -.00000115  00000+0 -33993-3 0  9994
2 56080  87.8957  64.7255 0002332  91.2069 268.9329 13.15548289 48277
ONEWEB-0718             
1 56081U 23043AM  24067.50479941  .00000204  00000+0  50696-3 0  9994
2 56081  87.8957  64.7136 0001433 102.5654 257.5637 13.15548085 47081
GSLV R/B                
1 56082U 23043AN  24067.60707621  .00097931  00000+0  98298-3 0  9998
2 56082  87.4090  17.9816 0020396 101.1592 259.1971 15.64912664 53749
ONEWEB-0561             
1 56710U 23068A   24067.55473395  .00000185  00000+0  34529-3 0  9997
2 56710  88.2851  78.7388 0002298  69.6916 290.4472 13.34329089 39701
ONEWEB-0668             
1 56711U 23068B   24067.59391779  .00000321  00000+0  80622-3 0  9994
2 56711  87.9426  34.2606 0001575 102.0104 258.1204 13.16594749 42350
ONEWEB-0676             
1 56712U 23068C   24067.41658131  .00000284  00000+0  70916-3 0  9997
2 56712  87.9089  34.3171 0002366  78.7167 281.4230 13.16593252 42256
ONEWEB-0677             
1 56713U 23068D   24067.57404600  .00000054  00000+0  82144-4 0  9997
2 56713  88.3189  77.0919 0002611  92.1374 268.0066 13.34778328 39893
ONEWEB-0678             
1 56714U 23068E   24067.54915752 -.00000231  00000+0 -64828-3 0  9997
2 56714  87.8960  64.6675 0001760  83.7469 276.3861 13.15547823 39945
ONEWEB-0679             
1 56715U 23068F   24067.46725956 -.00000094  00000+0 -27988-3 0  9997
2 56715  87.9089  34.3159 0002293 102.5050 257.6337 13.16595447 42285
ONEWEB-0680             
1 56716U 23068G   24067.48153781 -.00000011  00000+0 -57868-4 0  9991
2 56716  87.9233  49.5452 0001705 112.0159 248.1156 13.21825200 41220
ONEWEB-0681             
1 56717U 23068H   24067.50676917  .00000036  00000+0  56427-4 0  9991
2 56717  87.9234  49.5283 0003186  85.1763 274.9734 13.21826025 41214
ONEWEB-0682             
1 56718U 23068J   24067.49923168 -.00009058  00000+0 -24102-1 0  9990
2 56718  87.8955  64.7224 0001927  99.4360 260.6988 13.15595261 40108
ONEWEB-0683             
1 56719U 23068K   24067.52065598  .00000190  00000+0  47101-3 0  9991
2 56719  87.8956  64.6911 0001902  99.5729 260.5617 13.15549848 40079
ONEWEB-0684             
1 56720U 23068L   24067.52857158  .00000149  00000+0  36171-3 0  9993
2 56720  87.8957  64.7654 0001406  77.6660 282.4627 13.15548485 39907
ONEWEB-0686             
1 56721U 23068M   24067.45702218  .00000093  00000+0  20885-3 0  9995
2 56721  87.9090  34.3545 0001758  81.6176 278.5154 13.16595377 42274
ONEWEB-0694             
1 56722U 23068N   24067.40708740 -.00000196  00000+0 -54538-3 0  9995
2 56722  87.9110  34.2806 0001500 102.5640 257.5659 13.16590846 42320
ONEWEB-0696             
1 56723U 23068P   24067.48577947 -.00000291  00000+0 -80781-3 0  9992
2 56723  87.8956  64.7481 0002084  79.7862 280.3503 13.15548056 40015
ONEWEB-0703             
1 56724U 23068Q   24067.49529586  .00000034  00000+0  56021-4 0  9994
2 56724  87.8955  64.7677 0002792  63.6732 296.4685 13.15547401 39904
ONEWEB-0721             
1 56725U 23068R   24067.35015275  .00003645  00000+0  43165-3 0  9990
2 56725  86.6817  18.6210 0007221 274.8499  85.1900 14.84301023 43406
